OSCAR 7 (AO-7)          
1 07530U 74089B   13082.49633382 -.00000061  00000-0 -11100-3 0  6379
2 07530 101.4265  75.1309 0012395  95.8115  49.9292 12.53595549755044
PHASE 3B (AO-10)        
1 14129U 83058B   13074.99707568 -.00000489  00000-0  00000+0 0   562
2 14129  26.6827 288.9521 6030555 241.6656  10.4829  2.05870470195810
UOSAT 2 (UO-11)         
1 14781U 84021B   13082.22633629  .00000567  00000-0  80310-4 0  1326
2 14781  97.9118 144.7329 0008815 198.8409 161.2478 14.80790885561213
PACSAT (AO-16)          
1 20439U 90005D   13082.09192023  .00000094  00000-0  50691-4 0  7044
2 20439  98.4650  24.1488 0011835  58.2004  63.8924 14.32149166209916
LUSAT (LO-19)           
1 20442U 90005G   13082.42742370  .00000095  00000-0  50728-4 0  6378
2 20442  98.4336  26.5382 0012610  48.3356  99.5755 14.32362126210151
EYESAT-1 (AO-27)        
1 22825U 93061C   13083.10678767  .00000084  00000-0  49954-4 0  3424
2 22825  98.6115  28.0655 0008779 170.6803 311.1721 14.29542425 16475
ITAMSAT (IO-26)         
1 22826U 93061D   13082.83486352  .00000089  00000-0  51602-4 0   987
2 22826  98.6054  28.1013 0009378 165.5978 272.2960 14.29824215 16561
RADIO ROSTO (RS-15)     
1 23439U 94085A   13080.36573186 -.00000039  00000-0  10000-3 0  5643
2 23439  64.8134 204.0023 0155163 169.1029 191.3318 11.27558318750941
JAS-2 (FO-29)           
1 24278U 96046B   13083.17476418 -.00000016  00000-0  19115-4 0   799
2 24278  98.5642 153.0730 0350759  24.5903  54.5231 13.52996972819810
TECHSAT 1B (GO-32)      
1 25397U 98043D   13082.14617645 -.00000006  00000-0  15638-4 0   285
2 25397  98.4058  53.6910 0001813 145.7995 276.8113 14.23328187763709
SEDSAT 1 (SO-33)        
1 25509U 98061B   13081.71374317  .00000419  00000-0  71689-4 0  4580
2 25509  31.4317 197.1930 0351393 120.9315  22.6510 14.28981244752516
ISS (ZARYA)             
1 25544U 98067A   13083.35038144  .00010302  00000-0  17411-3 0  4687
2 25544  51.6461 169.5099 0012106  65.9767 338.6379 15.52163589821537
PCSAT (NO-44)           
1 26931U 01043C   13082.51232881  .00000101  00000-0  71115-4 0  2874
2 26931  67.0507 120.3643 0006354 286.8786 218.3660 14.29898506599179
SAUDISAT 1C (SO-50)     
1 27607U 02058C   13081.75987944  .00000619  00000-0  11565-3 0   227
2 27607  64.5566 167.2279 0056091 189.1363 281.0005 14.72821675550988
CUTE-1 (CO-55)          
1 27844U 03031E   13083.07981646  .00000194  00000-0  10930-3 0  6085
2 27844  98.7028  93.3876 0010813 132.0446 260.1840 14.21176853504648
CUBESAT XI-IV (CO-57)   
1 27848U 03031J   13083.06410234  .00000172  00000-0  99463-4 0  5543
2 27848  98.7113  92.8401 0010636 137.2733 255.7287 14.20907782504573
MOZHAYETS 4 (RS-22)     
1 27939U 03042A   13083.11427283  .00000465  00000-0  96261-4 0  2651
2 27939  97.8000 275.4048 0014402  96.1292 264.1538 14.64360322506849
ECHO (AO-51)            
1 28375U 04025K   13081.94074068  .00000130  00000-0  52153-4 0  5144
2 28375  98.1925  40.9078 0082147 277.0077 114.0340 14.41084967458915
HAMSAT (VO-52)          
1 28650U 05017B   13083.08758196  .00000910  00000-0  11579-3 0  3768
2 28650  97.5741 106.0497 0025962 197.2697 240.3042 14.83650291426464
CUBESAT XI-V (CO-58)    
1 28895U 05043F   13083.18499541  .00000557  00000-0  12239-3 0  4341
2 28895  97.8810 302.6156 0017207 354.3558 130.2240 14.61005533394534
CUTE-1.7+APD II (CO-65) 
1 32785U 08021C   13082.74145233  .00001158  00000-0  14633-3 0  5855
2 32785  97.7605 142.6843 0013776 222.0846 254.3888 14.83660032265203
DELFI-C3 (DO-64)        
1 32789U 08021G   13083.19515321  .00002611  00000-0  29112-3 0  5907
2 32789  97.7772 147.8036 0013803 210.7197 221.0747 14.87842718265489
YUBILEINY (RS-30)       
1 32953U 08025A   13083.06579873  .00000010  00000-0  00000+0 0  7030
2 32953  82.5005 121.1301 0020027  60.9474 299.3612 12.43032277219335
PRISM                   
1 33493U 09002B   13083.22350969  .00003694  00000-0  43333-3 0  6464
2 33493  98.2058 237.4363 0019116 108.2066 252.1171 14.85483348225304
STARS                   
1 33498U 09002G   13081.96053252  .00001218  00000-0  19489-3 0  9933
2 33498  98.1374 204.4982 0011550 257.7400 221.4310 14.73605390223566
KKS-1                   
1 33499U 09002H   13083.11014134  .00000685  00000-0  11677-3 0    84
2 33499  98.1364 203.7546 0008871 256.2743 204.5853 14.72201270223607
SWISSCUBE               
1 35932U 09051B   13081.85078950  .00000622  00000-0  16040-3 0  9839
2 35932  98.3503 189.6410 0006886 333.6860  26.3986 14.53424946185334
BEESAT                  
1 35933U 09051C   13082.30888295  .00000508  00000-0  13171-3 0  2672
2 35933  98.3484 190.6463 0005202 351.5700  79.3410 14.53846735185464
ITUPSAT1                
1 35935U 09051E   13081.84339735  .00000453  00000-0  12031-3 0  1742
2 35935  98.3579 190.3661 0007414 335.9232  24.1616 14.53209447185314
HOPE-1 (HO-68)          
1 36122U 09072B   13083.15007153 -.00000044  00000-0  00000+0 0  3957
2 36122 100.3172 142.3189 0007391 185.8505 174.2517 13.16302630157229
JUGNU                   
1 37839U 11058B   13082.16254007  .00000394  00000-0  68850-4 0  3535
2 37839  19.9612 108.0106 0019388  55.5196   3.2496 14.12133982 74724
SRMSAT                  
1 37841U 11058D   13082.47318199  .00000377  00000-0  63114-4 0  3567
2 37841  19.9716 116.4896 0012214  16.1487 128.3209 14.10208088 74660
RAX-2                   
1 37853U 11061D   13083.11233615  .00003025  00000-0  23854-3 0  4554
2 37853 101.7153 257.3825 0238447 271.1545 198.9263 14.82582425 75833
AUBIESAT-1 (AO-71)      
1 37854U 11061E   13082.15327631  .00004193  00000-0  32023-3 0  4522
2 37854 101.7190 256.6762 0238679 272.7179 142.3873 14.83187253 75701
M-CUBED & EXP-1 PRIME   
1 37855U 11061F   13083.15205807  .00003620  00000-0  27921-3 0  4507
2 37855 101.7189 257.9588 0239528 270.2134 148.5660 14.82914927 75840
CHIBIS-M (RS-39)        
1 38051U 11062C   13083.20987269  .00011974  00000-0  41597-3 0  2821
2 38051  51.6351 259.9364 0011448 317.1856  20.5978 15.30102337 64755
